{"type": "FeatureCollection", "features": [{"type": "Feature", "properties": {"name": "CT clinic"}, "geometry": {"type": "Point", "coordinates": [103.5224907, 10.6271869]}}, {"type": "Feature", "properties": {"name": ""}, "geometry": {"type": "Point", "coordinates": [103.5188367, 10.6288641]}}, {"type": "Feature", "properties": {"name": ""}, "geometry": {"type": "Point", "coordinates": [103.5575586, 10.6390566]}}, {"type": "Feature", "properties": {"name": "\u1798\u1793\u17d2\u1791\u17b8\u179a\u1796\u17c1\u1791\u17d2\u1799\u200b\u1794\u1784\u17d2\u17a2\u17c2\u1780\u200b\u1781\u17c1\u178f\u17d2\u178f\u200b\u1796\u17d2\u179a\u17c7\u179f\u17b8\u17a0\u1793\u17bb"}, "geometry": {"type": "Point", "coordinates": [103.5290093, 10.6121856]}}]}