{"type": "FeatureCollection", "features": [{"type": "Feature", "properties": {"name": ""}, "geometry": {"type": "Point", "coordinates": [103.5078821, 10.6287042]}}, {"type": "Feature", "properties": {"name": "\u179f\u17b6\u179b\u17b6\u1794\u17b6\u179a\u17b6\u17c6\u1784\u1780\u17d2\u179a\u17bb\u1784\u1796\u17d2\u179a\u17c7\u179f\u17b8\u17a0\u1793\u17bb"}, "geometry": {"type": "Point", "coordinates": [103.5057268, 10.6283951]}}, {"type": "Feature", "properties": {"name": ""}, "geometry": {"type": "Point", "coordinates": [103.5281073, 10.6228375]}}, {"type": "Feature", "properties": {"name": ""}, "geometry": {"type": "Point", "coordinates": [103.5203424, 10.6222309]}}, {"type": "Feature", "properties": {"name": ""}, "geometry": {"type": "Point", "coordinates": [103.5225821, 10.6640057]}}, {"type": "Feature", "properties": {"name": "Don Bosco School"}, "geometry": {"type": "Point", "coordinates": [103.5483074, 10.611342]}}, {"type": "Feature", "properties": {"name": "\u179c\u17b7\u1791\u17d2\u1799\u17b6\u179b\u17d0\u1799 \u17a0\u17ca\u17bb\u1793 \u179f\u17c2\u1793 \u1798\u17b7\u178f\u17d2\u178f\u1797\u17b6\u1796"}, "geometry": {"type": "Point", "coordinates": [103.5408445, 10.615077]}}, {"type": "Feature", "properties": {"name": "Life University"}, "geometry": {"type": "Point", "coordinates": [103.5217612, 10.6324251]}}, {"type": "Feature", "properties": {"name": "\u17a2\u1793\u17bb\u179c\u17b7\u1791\u17d2\u1799\u17b6\u179b\u17d0\u1799\u179f\u1798\u17d2\u178f\u17c1\u1785\u17aa"}, "geometry": {"type": "Point", "coordinates": [103.5127267, 10.6283689]}}, {"type": "Feature", "properties": {"name": "\u179c\u17b7\u1791\u17d2\u1799\u17b6\u179b\u17d0\u1799\u200b\u1780\u17d2\u179a\u17bb\u1784\u1796\u17d2\u179a\u17c7\u179f\u17b8\u17a0\u1793\u17bb"}, "geometry": {"type": "Point", "coordinates": [103.5105166, 10.6233146]}}, {"type": "Feature", "properties": {"name": ""}, "geometry": {"type": "Point", "coordinates": [103.5216033, 10.6265849]}}, {"type": "Feature", "properties": {"name": "\u1794\u178b\u1798\u179f\u17b7\u179f\u17d2\u179f\u17b6\u200b\u1787\u17b6\u179f\u17ca\u17b8\u1798"}, "geometry": {"type": "Point", "coordinates": [103.5213935, 10.6258572]}}, {"type": "Feature", "properties": {"name": "\u179f\u17b6\u179b\u17b6\u1794\u178b\u1798\u179f\u17b7\u1780\u17d2\u179f\u17b6 \u17a0\u17ca\u17bb\u1793\u179f\u17c2\u1793 \u1780\u17d2\u179a\u17bb\u1784"}, "geometry": {"type": "Point", "coordinates": [103.5095956, 10.6290233]}}, {"type": "Feature", "properties": {"name": "Bet Trang Primary & Secondary Friendship School of Preah Sihanouk-Jiangsu"}, "geometry": {"type": "Point", "coordinates": [103.6236758, 10.6021905]}}, {"type": "Feature", "properties": {"name": ""}, "geometry": {"type": "Point", "coordinates": [103.5574491, 10.6253087]}}, {"type": "Feature", "properties": {"name": "\u1794\u178b\u1798\u179f\u17b7\u1780\u17d2\u179f\u17b6\u200b\u17a2\u17bc\u179a\u178f\u17d2\u179a\u17c1\u17c7"}, "geometry": {"type": "Point", "coordinates": [103.5685793, 10.5766926]}}, {"type": "Feature", "properties": {"name": ""}, "geometry": {"type": "Point", "coordinates": [103.5100832, 10.6304022]}}, {"type": "Feature", "properties": {"name": "\u17a2\u1793\u17bb\u179c\u17b7\u1791\u17d2\u1799\u17b6\u179b\u17d0\u1799\u1780\u1798\u17d2\u1798\u1780\u179a"}, "geometry": {"type": "Point", "coordinates": [103.5260537, 10.6129252]}}, {"type": "Feature", "properties": {"name": ""}, "geometry": {"type": "Point", "coordinates": [103.624968, 10.7249122]}}]}