{"type": "FeatureCollection", "features": [{"type": "Feature", "properties": {"name": "Battambang"}, "geometry": {"type": "Polygon", "coordinates": [[[103.0812694, 13.086799], [103.0815236, 13.0852185], [103.0815918, 13.0837632], [103.0814345, 13.0797495], [103.0820059, 13.0757919], [103.082116, 13.0722122], [103.0831226, 13.0682698], [103.0835997, 13.0650423], [103.0840086, 13.0580357], [103.0840925, 13.05538], [103.0844909, 13.0521268], [103.0844909, 13.0507837], [103.0861528, 13.0508245], [103.0890466, 13.0507786], [103.095259, 13.0513097], [103.0961293, 13.0511667], [103.1056654, 13.0519838], [103.1148451, 13.0523669], [103.1239409, 13.0526324], [103.1261742, 13.0529695], [103.1304916, 13.0443089], [103.1353131, 13.0473368], [103.1363946, 13.0484551], [103.1376177, 13.0495547], [103.1417161, 13.0524404], [103.1419961, 13.0517183], [103.1423317, 13.050038], [103.1425676, 13.0473976], [103.1444182, 13.0391341], [103.1451154, 13.0370809], [103.1462321, 13.0320399], [103.1469136, 13.0297159], [103.1472072, 13.0292716], [103.1487747, 13.0295831], [103.1509609, 13.0308958], [103.153839, 13.0321982], [103.1566123, 13.0337049], [103.159244, 13.0347724], [103.1607434, 13.0346447], [103.1634538, 13.0343382], [103.1663319, 13.0342872], [103.1690895, 13.0341595], [103.1721354, 13.0343178], [103.1763661, 13.0342105], [103.1795431, 13.0342054], [103.1819704, 13.0341952], [103.1848066, 13.0342412], [103.1894724, 13.0342259], [103.1906782, 13.0339501], [103.1901068, 13.0349409], [103.189462, 13.0354772], [103.187842, 13.0357428], [103.1868092, 13.036468], [103.1869875, 13.0376478], [103.1877948, 13.0384242], [103.1892523, 13.0388889], [103.190867, 13.0394609], [103.1920203, 13.0405692], [103.1927962, 13.0425253], [103.1938552, 13.0427858], [103.1953179, 13.041938], [103.1959732, 13.0408552], [103.1969588, 13.0395835], [103.1989404, 13.0379543], [103.2002144, 13.0378215], [103.2012157, 13.0385416], [103.2011738, 13.0399359], [103.2000571, 13.0423721], [103.1992183, 13.0436387], [103.1982432, 13.0440422], [103.197656, 13.0444763], [103.1969011, 13.0464068], [103.1964817, 13.0478266], [103.1953388, 13.0501606], [103.1931684, 13.05204], [103.1929063, 13.0531023], [103.1933729, 13.0538173], [103.1948093, 13.0550072], [103.1964712, 13.0559469], [103.1967491, 13.0570194], [103.1965027, 13.0582859], [103.1959994, 13.0599099], [103.1957425, 13.0609262], [103.1958054, 13.0618505], [103.1968434, 13.0627085], [103.1980912, 13.0632651], [103.200099, 13.0628464], [103.2011633, 13.0632039], [103.2028304, 13.0656041], [103.2038946, 13.0667071], [103.2042931, 13.0678919], [103.2026259, 13.0700776], [103.2023035, 13.07127], [103.202951, 13.0727101], [103.2033955, 13.0738246], [103.2033202, 13.0750523], [103.2028848, 13.0762807], [103.2023612, 13.0773597], [103.2021436, 13.0787716], [103.2026417, 13.0796984], [103.2033311, 13.0799002], [103.205124, 13.0795018], [103.2091424, 13.0784474], [103.2104216, 13.0779827], [103.2117899, 13.0771452], [103.2139917, 13.0750974], [103.214689, 13.0738106], [103.2154806, 13.0738208], [103.2151398, 13.0763281], [103.2146523, 13.0796729], [103.2228306, 13.0807351], [103.2235751, 13.0817308], [103.2256144, 13.0816798], [103.2273055, 13.0845645], [103.2243706, 13.0855215], [103.2252317, 13.0891606], [103.2256616, 13.0908304], [103.225562, 13.0922959], [103.2259185, 13.0931997], [103.2279159, 13.0942465], [103.2303484, 13.0953035], [103.2305948, 13.0959928], [103.2301335, 13.098025], [103.2295935, 13.0991841], [103.2285345, 13.0992352], [103.225735, 13.0984182], [103.225735, 13.1008998], [103.2262383, 13.1021661], [103.2281361, 13.1026563], [103.2293943, 13.1036468], [103.2298032, 13.1047191], [103.2295935, 13.1067513], [103.2271714, 13.106496], [103.2270456, 13.1074355], [103.2266157, 13.1083239], [103.2234492, 13.1090694], [103.220136, 13.1101212], [103.2166864, 13.1115917], [103.2154282, 13.112235], [103.2153653, 13.1156457], [103.2133207, 13.1165647], [103.212765, 13.1172081], [103.2125867, 13.1177595], [103.212398, 13.1191789], [103.2128279, 13.1204655], [103.2140861, 13.1212211], [103.2143377, 13.122518], [103.2143482, 13.1241109], [103.2136038, 13.1261633], [103.2122302, 13.1273887], [103.2115802, 13.1285629], [103.2123036, 13.1294309], [103.2140966, 13.1303601], [103.2167178, 13.1348835], [103.216634, 13.1377425], [103.2161202, 13.1392332], [103.2170639, 13.1395855], [103.2195803, 13.1385134], [103.2207022, 13.1392894], [103.2209591, 13.1405453], [103.2183797, 13.1412498], [103.2160206, 13.1420615], [103.2145107, 13.1398765], [103.2134255, 13.1380028], [103.2116641, 13.136022], [103.2104058, 13.136073], [103.2089851, 13.1378292], [103.2074071, 13.139126], [103.2063376, 13.1407239], [103.2059916, 13.1457985], [103.2056823, 13.1482592], [103.2056666, 13.1510976], [103.204875, 13.1523943], [103.1988985, 13.1527261], [103.1956586, 13.1531804], [103.1914122, 13.1533183], [103.1897608, 13.1534918], [103.1883348, 13.1544669], [103.1882614, 13.1569275], [103.1878905, 13.1582905], [103.1855668, 13.1580556], [103.1820018, 13.1582394], [103.1794461, 13.1582113], [103.1770975, 13.1579893], [103.1753622, 13.1586223], [103.1753203, 13.1579612], [103.1750162, 13.1567871], [103.174741, 13.1562587], [103.1731472, 13.1562919], [103.1704159, 13.1561056], [103.1698785, 13.1555083], [103.1694932, 13.1542219], [103.1691052, 13.1517204], [103.1683084, 13.1471973], [103.1679624, 13.1443793], [103.1676478, 13.1425516], [103.1671419, 13.1392409], [103.1661118, 13.1391796], [103.1628299, 13.1395855], [103.1598155, 13.1402134], [103.1585232, 13.1401088], [103.1579413, 13.1381177], [103.157459, 13.1353838], [103.1570632, 13.1331145], [103.156725, 13.1307787], [103.1562034, 13.1279962], [103.1555874, 13.1253618], [103.154974, 13.1221478], [103.1548613, 13.1195363], [103.1544943, 13.1155589], [103.1539386, 13.1115815], [103.1530526, 13.1087579], [103.1528744, 13.108038], [103.1512544, 13.1077418], [103.1485021, 13.1083545], [103.1463999, 13.1089315], [103.1444182, 13.1092123], [103.1444025, 13.108186], [103.1443448, 13.1064245], [103.1442085, 13.1034222], [103.1443763, 13.1021737], [103.1442557, 13.1014002], [103.1458389, 13.1007262], [103.1468874, 13.099899], [103.1467197, 13.096049], [103.1464575, 13.0924236], [103.1463002, 13.0915963], [103.1442871, 13.0913921], [103.1403762, 13.0907181], [103.1350812, 13.090473], [103.125089, 13.0899317], [103.1168373, 13.0896355], [103.1067716, 13.088553], [103.1024623, 13.0884407], [103.0977754, 13.0879709], [103.0929418, 13.0878024], [103.0886901, 13.0874194], [103.0852799, 13.0872662], [103.0825879, 13.0870977], [103.0812694, 13.086799]]]}}]}