{"type": "FeatureCollection", "features": [{"type": "Feature", "properties": {"name": "Handa medical center"}, "geometry": {"type": "Point", "coordinates": [103.2077587, 13.0991613]}}, {"type": "Feature", "properties": {"name": "Battambang Laboratory"}, "geometry": {"type": "Point", "coordinates": [103.2028684, 13.0920389]}}, {"type": "Feature", "properties": {"name": "Sovann Polyclinic"}, "geometry": {"type": "Point", "coordinates": [103.1955577, 13.0987143]}}, {"type": "Feature", "properties": {"name": "\u1798\u178e\u17d2\u178c\u179b\u179f\u17bb\u1781\u1797\u17b6\u1796 \u179c\u178f\u17d2\u178f\u1782\u179a"}, "geometry": {"type": "Point", "coordinates": [103.1948732, 13.056678]}}, {"type": "Feature", "properties": {"name": ""}, "geometry": {"type": "Point", "coordinates": [103.1932273, 13.0819667]}}, {"type": "Feature", "properties": {"name": "Battambang Provincial Hospital"}, "geometry": {"type": "Point", "coordinates": [103.2018011, 13.1085867]}}]}