{"type": "FeatureCollection", "features": [{"type": "Feature", "properties": {"name": "Beijing International Academy"}, "geometry": {"type": "Point", "coordinates": [103.1958143, 13.0937467]}}, {"type": "Feature", "properties": {"name": ""}, "geometry": {"type": "Point", "coordinates": [103.2112419, 13.1290104]}}, {"type": "Feature", "properties": {"name": "Chamcarsamrong Secondary School"}, "geometry": {"type": "Point", "coordinates": [103.2097869, 13.1110367]}}, {"type": "Feature", "properties": {"name": "Battambang Regional Training for Health"}, "geometry": {"type": "Point", "coordinates": [103.2082084, 13.0986152]}}, {"type": "Feature", "properties": {"name": ""}, "geometry": {"type": "Point", "coordinates": [103.2072887, 13.1021818]}}, {"type": "Feature", "properties": {"name": "\u179f\u17b6\u179b\u17b6\u1794\u178b\u1798\u179f\u17b7\u1780\u17d2\u179f\u17b6 \u1780\u17c6\u1796\u1784\u17cb\u179f\u17b8\u1798\u17b6"}, "geometry": {"type": "Point", "coordinates": [103.1954954, 13.0567877]}}, {"type": "Feature", "properties": {"name": "VANDA Institute"}, "geometry": {"type": "Point", "coordinates": [103.2111688, 13.1048427]}}, {"type": "Feature", "properties": {"name": ""}, "geometry": {"type": "Point", "coordinates": [103.2016742, 13.0974149]}}, {"type": "Feature", "properties": {"name": ""}, "geometry": {"type": "Point", "coordinates": [103.1648754, 13.1065488]}}, {"type": "Feature", "properties": {"name": ""}, "geometry": {"type": "Point", "coordinates": [103.1976797, 13.1074981]}}, {"type": "Feature", "properties": {"name": "USA International School"}, "geometry": {"type": "Point", "coordinates": [103.1974536, 13.1075199]}}, {"type": "Feature", "properties": {"name": ""}, "geometry": {"type": "Point", "coordinates": [103.136189, 13.049489]}}, {"type": "Feature", "properties": {"name": ""}, "geometry": {"type": "Point", "coordinates": [103.1592787, 13.0652304]}}, {"type": "Feature", "properties": {"name": "Institut Fran\u00e7ais de Battambang"}, "geometry": {"type": "Point", "coordinates": [103.1998882, 13.1076114]}}, {"type": "Feature", "properties": {"name": ""}, "geometry": {"type": "Point", "coordinates": [103.190731, 13.0903773]}}, {"type": "Feature", "properties": {"name": ""}, "geometry": {"type": "Point", "coordinates": [103.1796108, 13.0762082]}}, {"type": "Feature", "properties": {"name": "Preah Monivong High School"}, "geometry": {"type": "Point", "coordinates": [103.1987543, 13.1057018]}}, {"type": "Feature", "properties": {"name": "Net Yang High School"}, "geometry": {"type": "Point", "coordinates": [103.2071111, 13.0900672]}}, {"type": "Feature", "properties": {"name": ""}, "geometry": {"type": "Point", "coordinates": [103.1957977, 13.0950447]}}, {"type": "Feature", "properties": {"name": ""}, "geometry": {"type": "Point", "coordinates": [103.199649, 13.0751412]}}, {"type": "Feature", "properties": {"name": "Samdach Ov High School"}, "geometry": {"type": "Point", "coordinates": [103.1986182, 13.0881528]}}, {"type": "Feature", "properties": {"name": ""}, "geometry": {"type": "Point", "coordinates": [103.2139126, 13.1145586]}}, {"type": "Feature", "properties": {"name": "Wat Damrey Sor Secondary School"}, "geometry": {"type": "Point", "coordinates": [103.1894391, 13.1004752]}}, {"type": "Feature", "properties": {"name": "\u179f\u17b6\u179b\u17b6\u1794\u178b\u1798\u179f\u17b7\u1780\u17d2\u179f\u17b6 \u17e2\u1792\u17d2\u1793\u17bc"}, "geometry": {"type": "Point", "coordinates": [103.197529, 13.0970861]}}, {"type": "Feature", "properties": {"name": "\u179f\u17b6\u179b\u17b6\u179a\u17c0\u1793\u1785\u17b7\u1793 \u179b\u17b6\u1793 \u17a0\u17bd"}, "geometry": {"type": "Point", "coordinates": [103.1978952, 13.0993176]}}, {"type": "Feature", "properties": {"name": "\u17a2\u1793\u17bb\u179c\u17b7\u1791\u17d2\u1799\u17b6\u179b\u17d0\u1799 \u179f\u17c4 \u17a0\u17ba"}, "geometry": {"type": "Point", "coordinates": [103.199481, 13.1039756]}}, {"type": "Feature", "properties": {"name": ""}, "geometry": {"type": "Point", "coordinates": [103.209404, 13.0895681]}}]}